{
    "CCSDS_OMM_VERS": "3.0",
    "COMMENT": "GENERATED VIA SPACE-TRACK.ORG API",
    "CREATION_DATE": "2025-05-22T22:26:24",
    "ORIGINATOR": "18 SPCS",
    "OBJECT_NAME": "BEIDOU 4",
    "OBJECT_ID": "2010-024A",
    "CENTER_NAME": "EARTH",
    "REF_FRAME": "TEME",
    "TIME_SYSTEM": "UTC",
    "MEAN_ELEMENT_THEORY": "SGP4",
    "EPOCH": "2025-05-22T21:43:28.790976",
    "MEAN_MOTION": "1.00270116",
    "ECCENTRICITY": "0.00087030",
    "INCLINATION": "3.5932",
    "RA_OF_ASC_NODE": "62.4161",
    "ARG_OF_PERICENTER": "344.2679",
    "MEAN_ANOMALY": "239.5962",
    "EPHEMERIS_TYPE": "0",
    "CLASSIFICATION_TYPE": "U",
    "NORAD_CAT_ID": "36590",
    "ELEMENT_SET_NO": "999",
    "REV_AT_EPOCH": "5486",
    "BSTAR": "0.00000000000000",
    "MEAN_MOTION_DOT": "-0.00000125",
    "MEAN_MOTION_DDOT": "0.0000000000000",
    "SEMIMAJOR_AXIS": "42165.200",
    "PERIOD": "1436.121",
    "APOAPSIS": "35823.761",
    "PERIAPSIS": "35750.368",
    "OBJECT_TYPE": "PAYLOAD",
    "RCS_SIZE": "LARGE",
    "COUNTRY_CODE": "PRC",
    "LAUNCH_DATE": "2010-06-02",
    "SITE": "XSC",
    "DECAY_DATE": null,
    "FILE": "4736300",
    "GP_ID": "288159466",
    "TLE_LINE0": "0 BEIDOU 4",
    "TLE_LINE1": "1 36590U 10024A   25142.90519434 -.00000125  00000-0  00000+0 0  9997",
    "TLE_LINE2": "2 36590   3.5932  62.4161 0008703 344.2679 239.5962  1.00270116 54867"
}